1 37673U 11024A   17067.96328249 +.00000142 +00000-0 +30125-4 0  9990
2 37673 098.0124 076.9906 0001747 116.5869 298.3150 14.72659834308721
